NORAD_CAT_ID,OBJECT_NAME,OBJECT_TYPE,EPOCH,MEAN_MOTION,ECCENTRICITY,INCLINATION,RA_OF_ASC_NODE,ARG_OF_PERICENTER,MEAN_ANOMALY,BSTAR,MEAN_MOTION_DOT,MEAN_MOTION_DDOT,TLE_LINE0,TLE_LINE1,TLE_LINE2,SEMIMAJOR_AXIS,PERIOD,APOGEE,PERIGEE,DECAYED
55943.0,STARLINK-5932,PAYLOAD,2024-03-02 04:44:38,14.98337762,0.0002836,70.0008,343.8298,270.321,89.7624,6.8897e-05,7.29e-06,0.0,0 STARLINK-5932,1 55943U 23037AF  24062.19766556  .00000729  00000-0  68897-4 0  9990,2 55943  70.0008 343.8298 0002836 270.3210  89.7624 14.98337762 53514,6950.169,96.107,574.005,570.063,0.0
55943.0,STARLINK-5932,PAYLOAD,2024-03-02 20:45:59,14.98327556,0.0002692,70.0011,342.147,272.2881,87.797,-4.1667e-05,-5.9e-06,0.0,0 STARLINK-5932,1 55943U 23037AF  24062.86527464 -.00000590  00000-0 -41667-4 0  9991,2 55943  70.0011 342.1470 0002692 272.2881  87.7970 14.98327556 53957,6950.2,96.107,573.936,570.194,0.0
55943.0,STARLINK-5932,PAYLOAD,2024-03-02 22:22:07,14.98327224,0.0002699,70.0011,341.9787,272.0898,87.9952,-4.4203e-05,-6.2e-06,0.0,0 STARLINK-5932,1 55943U 23037AF  24062.93203493 -.00000620  00000-0 -44203-4 0  9995,2 55943  70.0011 341.9787 0002699 272.0898  87.9952 14.98327224 53626,6950.201,96.107,573.942,570.191,0.0
55943.0,STARLINK-5932,PAYLOAD,2024-03-03 11:11:12,14.98329896,0.0002779,70.0013,340.6331,268.2239,91.8602,-9.086e-05,-1.177e-05,0.0,0 STARLINK-5932,1 55943U 23037AF  24063.46611460 -.00001177  00000-0 -90860-4 0  9999,2 55943  70.0013 340.6331 0002779 268.2239  91.8602 14.98329896 53706,6950.193,96.107,573.99,570.127,0.0
55943.0,STARLINK-5932,PAYLOAD,2024-03-03 20:48:00,14.98330506,0.0003034,70.0005,339.6217,271.799,88.2822,-1.1411e-05,-2.29e-06,0.0,0 STARLINK-5932,1 55943U 23037AF  24063.86667127 -.00000229  00000-0 -11411-4 0  9996,2 55943  70.0005 339.6217 0003034 271.7990  88.2822 14.98330506 53766,6950.191,96.107,574.165,569.948,0.0
55943.0,STARLINK-5932,PAYLOAD,2024-03-04 04:48:39,14.98341576,0.0002916,70.0008,338.7811,259.5012,100.5818,0.00010977,1.217e-05,0.0,0 STARLINK-5932,1 55943U 23037AF  24064.20045875  .00001217  00000-0  10977-3 0  9996,2 55943  70.0008 338.7811 0002916 259.5012 100.5818 14.98341576 54152,6950.157,96.106,574.049,569.995,0.0
55943.0,STARLINK-5932,PAYLOAD,2024-03-04 20:50:00,14.98326869,0.000263,70.0019,337.0977,250.4812,109.6063,0.00010216,1.126e-05,0.0,0 STARLINK-5932,1 55943U 23037AF  24064.86806567  .00001126  00000-0  10216-3 0  9996,2 55943  70.0019 337.0977 0002630 250.4812 109.6063 14.98326869 54251,6950.203,96.107,573.895,570.24,0.0
55943.0,STARLINK-5932,PAYLOAD,2024-03-04 22:26:08,14.98327149,0.0002654,70.0017,336.9291,244.2499,115.8387,8.4505e-05,9.15e-06,0.0,0 STARLINK-5932,1 55943U 23037AF  24064.93482577  .00000915  00000-0  84505-4 0  9993,2 55943  70.0017 336.9291 0002654 244.2499 115.8387 14.98327149 53927,6950.202,96.107,573.911,570.222,0.0
55943.0,STARLINK-5932,PAYLOAD,2024-03-05 03:14:33,14.98325982,0.0002737,70.0011,336.4234,259.9635,100.1215,5.7005e-05,5.87e-06,0.0,0 STARLINK-5932,1 55943U 23037AF  24065.13510809  .00000587  00000-0  57005-4 0  9996,2 55943  70.0011 336.4234 0002737 259.9635 100.1215 14.98325982 53953,6950.205,96.107,573.973,570.168,0.0
55943.0,STARLINK-5932,PAYLOAD,2024-03-05 20:52:02,14.98325877,0.0002833,70.0012,334.574,266.6942,93.3892,-6.555e-05,-8.75e-06,0.0,0 STARLINK-5932,1 55943U 23037AF  24065.86947307 -.00000875  00000-0 -65550-4 0  9999,2 55943  70.0012 334.5740 0002833 266.6942  93.3892 14.98325877 54406,6950.206,96.107,574.04,570.102,0.0
55943.0,STARLINK-5932,PAYLOAD,2024-03-06 03:16:34,14.98327187,0.0003028,70.001,333.9006,272.8474,87.2339,-5.161e-05,-7.09e-06,0.0,0 STARLINK-5932,1 55943U 23037AF  24066.13651184 -.00000709  00000-0 -51610-4 0  9993,2 55943  70.0010 333.9006 0003028 272.8474  87.2339 14.98327187 54109,6950.202,96.107,574.171,569.962,0.0
55943.0,STARLINK-5932,PAYLOAD,2024-03-06 19:17:55,14.98326637,0.000283,70.0008,332.2165,263.8183,96.2654,2.8899e-05,2.52e-06,0.0,0 STARLINK-5932,1 55943U 23037AF  24066.80410892  .00000252  00000-0  28899-4 0  9990,2 55943  70.0008 332.2165 0002830 263.8183  96.2654 14.98326637 54548,6950.203,96.107,574.035,570.101,0.0
55943.0,STARLINK-5932,PAYLOAD,2024-03-07 11:19:15,14.98331492,0.0002849,70.0003,330.532,268.2106,91.8727,-4.9171e-05,-6.8e-06,0.0,0 STARLINK-5932,1 55943U 23037AF  24067.47170862 -.00000680  00000-0 -49171-4 0  9997,2 55943  70.0003 330.5320 0002849 268.2106  91.8727 14.98331492 54302,6950.188,96.107,574.033,570.073,0.0
55943.0,STARLINK-5932,PAYLOAD,2024-03-08 01:44:28,14.98329316,0.0002883,70.0,329.017,267.9894,92.0934,5.4263e-05,5.55e-06,0.0,0 STARLINK-5932,1 55943U 23037AF  24068.07254823  .00000555  00000-0  54263-4 0  9991,2 55943  70.0000 329.0170 0002883 267.9894  92.0934 14.98329316 54735,6950.195,96.107,574.064,570.056,0.0
55943.0,STARLINK-5932,PAYLOAD,2024-03-08 03:20:36,14.98330694,0.000289,70.0,328.8487,268.156,91.9268,6.7461e-05,7.12e-06,0.0,0 STARLINK-5932,1 55943U 23037AF  24068.13930698  .00000712  00000-0  67461-4 0  9998,2 55943  70.0000 328.8487 0002890 268.1560  91.9268 14.98330694 54407,6950.191,96.107,574.064,570.047,0.0
55943.0,STARLINK-5932,PAYLOAD,2024-03-09 03:22:37,14.98307744,0.0002784,70.0,326.3245,271.7039,88.3801,0.00037975,4.438e-05,0.0,0 STARLINK-5932,1 55943U 23037AF  24069.14071437  .00004438  00000-0  37975-3 0  9992,2 55943  70.0000 326.3245 0002784 271.7039  88.3801 14.98307744 54891,6950.262,96.108,574.062,570.192,0.0
55943.0,STARLINK-5932,PAYLOAD,2024-03-09 09:47:09,14.98330675,0.0002861,69.9999,325.6512,270.7775,89.3056,2.7705e-05,2.38e-06,0.0,0 STARLINK-5932,1 55943U 23037AF  24069.40774811  .00000238  00000-0  27705-4 0  9992,2 55943  69.9999 325.6512 0002861 270.7775  89.3056 14.98330675 54933,6950.191,96.107,574.044,570.067,0.0
55943.0,STARLINK-5932,PAYLOAD,2024-03-09 16:11:41,14.98333007,0.0002849,69.9998,324.9779,271.7872,88.2961,4.5125e-05,4.46e-06,0.0,0 STARLINK-5932,1 55943U 23037AF  24069.67478583  .00000446  00000-0  45125-4 0  9995,2 55943  69.9998 324.9779 0002849 271.7872  88.2961 14.98333007 54636,6950.184,96.107,574.029,570.068,0.0
55943.0,STARLINK-5932,PAYLOAD,2024-03-10 03:24:37,14.98339723,0.0002838,69.9997,323.7995,272.1985,87.8849,8.7364e-05,9.5e-06,0.0,0 STARLINK-5932,1 55943U 23037AF  24070.14209846  .00000950  00000-0  87364-4 0  9994,2 55943  69.9997 323.7995 0002838 272.1985  87.8849 14.98339723 55047,6950.163,96.106,574.0,570.055,0.0
55943.0,STARLINK-5932,PAYLOAD,2024-03-10 09:49:10,14.98333548,0.0002813,69.9997,323.1258,273.6972,86.3865,-1.0267e-05,-2.15e-06,0.0,0 STARLINK-5932,1 55943U 23037AF  24070.40914397 -.00000215  00000-0 -10267-4 0  9991,2 55943  69.9997 323.1258 0002813 273.6972  86.3865 14.98333548 55083,6950.182,96.107,574.002,570.092,0.0
55943.0,STARLINK-5932,PAYLOAD,2024-03-10 21:02:07,14.98326508,0.0002579,70.0005,321.947,275.5228,84.5637,-4.6804e-05,-6.51e-06,0.0,0 STARLINK-5932,1 55943U 23037AF  24070.87647011 -.00000651  00000-0 -46804-4 0  9998,2 55943  70.0005 321.9470 0002579 275.5228  84.5637 14.98326508 55155,6950.204,96.107,573.861,570.276,0.0
55943.0,STARLINK-5932,PAYLOAD,2024-03-10 22:38:15,14.98326167,0.0002787,69.9998,321.7798,271.422,88.662,-4.0548e-05,-5.77e-06,0.0,0 STARLINK-5932,1 55943U 23037AF  24070.94322931 -.00000577  00000-0 -40548-4 0  9993,2 55943  69.9998 321.7798 0002787 271.4220  88.6620 14.98326167 54823,6950.205,96.107,574.007,570.133,0.0
55943.0,STARLINK-5932,PAYLOAD,2024-03-11 09:51:11,14.98327286,0.0002722,69.9999,320.6014,271.9656,88.1191,-2.2846e-05,-3.66e-06,0.0,0 STARLINK-5932,1 55943U 23037AF  24071.41054856 -.00000366  00000-0 -22846-4 0  9991,2 55943  69.9999 320.6014 0002722 271.9656  88.1191 14.98327286 54898,6950.201,96.107,573.958,570.174,0.0
55943.0,STARLINK-5932,PAYLOAD,2024-03-11 21:04:07,14.98331672,0.0002732,69.9994,319.4224,272.8408,87.2439,-6.4562e-05,-8.63e-06,0.0,0 STARLINK-5932,1 55943U 23037AF  24071.87786650 -.00000863  00000-0 -64562-4 0  9998,2 55943  69.9994 319.4224 0002732 272.8408  87.2439 14.98331672 55304,6950.188,96.107,573.952,570.154,0.0
55943.0,STARLINK-5932,PAYLOAD,2024-03-12 16:17:44,14.98322786,0.0003073,69.9986,317.4033,270.1122,89.9685,2.841e-05,2.46e-06,0.0,0 STARLINK-5932,1 55943U 23037AF  24072.67898765  .00000246  00000-0  28410-4 0  9993,2 55943  69.9986 317.4033 0003073 270.1122  89.9685 14.98322786 55087,6950.215,96.107,574.216,569.944,0.0
55943.0,STARLINK-5932,PAYLOAD,2024-03-13 01:54:32,14.98326689,0.0002852,69.999,316.3927,270.1604,89.9228,7.6372e-05,8.18e-06,0.0,0 STARLINK-5932,1 55943U 23037AF  24073.07954520  .00000818  00000-0  76372-4 0  9995,2 55943  69.9990 316.3927 0002852 270.1604  89.9228 14.98326689 55484,6950.203,96.107,574.05,570.086,0.0
55943.0,STARLINK-5932,PAYLOAD,2024-03-13 09:55:13,14.98319512,0.0002775,69.9997,315.5502,270.2036,89.8805,-7.1898e-05,-9.5e-06,0.0,0 STARLINK-5932,1 55943U 23037AF  24073.41335470 -.00000950  00000-0 -71898-4 0  9997,2 55943  69.9997 315.5502 0002775 270.2036  89.8805 14.98319512 55538,6950.225,96.108,574.019,570.162,0.0
55943.0,STARLINK-5932,PAYLOAD,2024-03-13 22:44:19,14.98317152,0.0002924,70.0019,314.201,263.7094,96.3732,-0.00023508,-2.896e-05,0.0,0 STARLINK-5932,1 55943U 23037AF  24073.94744482 -.00002896  00000-0 -23508-3 0  9997,2 55943  70.0019 314.2010 0002924 263.7094  96.3732 14.98317152 55274,6950.233,96.108,574.13,570.065,0.0
55943.0,STARLINK-5932,PAYLOAD,2024-03-14 01:56:35,14.98310201,0.0003019,69.9988,313.8663,260.4245,99.6573,-0.00020486,-2.535e-05,0.0,0 STARLINK-5932,1 55943U 23037AF  24074.08097096 -.00002535  00000-0 -20486-3 0  9997,2 55943  69.9988 313.8663 0003019 260.4245  99.6573 14.98310201 55630,6950.254,96.108,574.217,570.021,0.0
55943.0,STARLINK-5932,PAYLOAD,2024-03-14 21:10:11,14.98324616,0.0002959,69.9986,311.847,264.7393,95.3428,1.3078e-05,6.3e-07,0.0,0 STARLINK-5932,1 55943U 23037AF  24074.88208264  .00000063  00000-0  13078-4 0  9998,2 55943  69.9986 311.8470 0002959 264.7393  95.3428 14.98324616 55755,6950.21,96.107,574.131,570.018,0.0
